*******************************************************************************
 Revised: April 12, 2021                 Earth                              399
 
 GEOPHYSICAL PROPERTIES (revised Aug 15, 2018):
  Vol. Mean Radius (km)    = 6371.01+-0.02   Mass x10^24 (kg)= 5.97219+-0.0006
  Equ. radius, km          = 6378.137        Mass layers:
  Polar axis, km           = 6356.752          Atmos         = 5.1   x 10^18 kg
  Flattening               = 1/298.257223563   oceans        = 1.4   x 10^21 kg
  Density, g/cm^3          = 5.51              crust         = 2.6   x 10^22 kg
  J2 (IERS 2010)           = 0.00108262545     mantle        = 4.043 x 10^24 kg
  g_p, m/s^2  (polar)      = 9.8321863685      outer core    = 1.835 x 10^24 kg
  g_e, m/s^2  (equatorial) = 9.7803267715      inner core    = 9.675 x 10^22 kg
  g_o, m/s^2               = 9.82022         Fluid core rad  = 3480 km
  GM, km^3/s^2             = 398600.435436   Inner core rad  = 1215 km
  GM 1-sigma, km^3/s^2     =      0.0014     Escape velocity = 11.186 km/s
  Rot. Rate (rad/s)        = 0.00007292115   Surface area:
  Mean sidereal day, hr    = 23.9344695944     land          = 1.48 x 10^8 km
  Mean solar day 2000.0, s = 86400.002         sea           = 3.62 x 10^8 km
  Mean solar day 1820.0, s = 86400.0         Love no., k2    = 0.299
  Moment of inertia        = 0.3308          Atm. pressure   = 1.0 bar
  Mean temperature, K      = 270             Volume, km^3    = 1.08321 x 10^12
  Mean effect. IR temp, K  = 255             Magnetic moment = 0.61 gauss Rp^3
  Geometric albedo         = 0.367           Vis. mag. V(1,0)= -3.86
  Solar Constant (W/m^2)   = 1367.6 (mean), 1414 (perihelion), 1322 (aphelion)
 HELIOCENTRIC ORBIT CHARACTERISTICS:
  Obliquity to orbit, deg  = 23.4392911  Sidereal orb period  = 1.0000174 y
  Orbital speed, km/s      = 29.79       Sidereal orb period  = 365.25636 d
  Mean daily motion, deg/d = 0.9856474   Hill's sphere radius = 234.9       
*******************************************************************************


*******************************************************************************
Ephemeris / WWW_USER Thu May  5 15:41:47 2022 Pasadena, USA      / Horizons
*******************************************************************************
Target body name: Earth (399)                     {source: DE441}
Center body name: Sun (10)                        {source: DE441}
Center-site name: BODY CENTER
*******************************************************************************
Start time      : A.D. 2017-Oct-14 00:00:00.0000 TDB
Stop  time      : A.D. 2018-Jan-02 00:00:00.0000 TDB
Step-size       : 60 minutes
*******************************************************************************
Center geodetic : 0.00000000,0.00000000,0.0000000 {E-lon(deg),Lat(deg),Alt(km)}
Center cylindric: 0.00000000,0.00000000,0.0000000 {E-lon(deg),Dxy(km),Dz(km)}
Center radii    : 696000.0 x 696000.0 x 696000.0 k{Equator, meridian, pole}    
Output units    : KM-S
Output type     : GEOMETRIC cartesian states
Output format   : 3 (position, velocity, LT, range, range-rate)
Reference frame : Ecliptic of J2000.0
*******************************************************************************
            JDTDB,            Calendar Date (TDB),        delta-T,                      X,                      Y,                      Z,                     VX,                     VY,                     VZ,                     LT,                     RG,                     RR,
******************************************************************************************************************************************************************************************************************************************************************************************
$$SOE
2458065.875000000, A.D. 2017-Nov-08 09:00:00.0000,      69.182622,  1.031319135173285E+08,  1.064369625182726E+08, -4.675658101402223E+03, -2.186583549643374E+01,  2.062023649291297E+01, -1.669892392044403E-03,  4.943620047493135E+02,  1.482060005456043E+08, -4.069343255898578E-01,
2458065.916666667, A.D. 2017-Nov-08 10:00:00.0000,      69.182623,  1.030531692162811E+08,  1.065111674761049E+08, -4.681680817082524E+03, -2.188099678945757E+01,  2.060473811923327E+01, -1.676043327005772E-03,  4.943571197039004E+02,  1.482045360458325E+08, -4.066767853893227E-01,
2458065.958333333, A.D. 2017-Nov-08 11:00:00.0000,      69.182624,  1.029743703521852E+08,  1.065853166186051E+08, -4.687725487455726E+03, -2.189614829850272E+01,  2.058922797388637E+01, -1.682089343025162E-03,  4.943522377465389E+02,  1.482030724718353E+08, -4.064200070706505E-01,
2458066.000000000, A.D. 2017-Nov-08 12:00:00.0000,      69.182624,  1.028955169602916E+08,  1.066594099033829E+08, -4.693791733741760E+03, -2.191129000773962E+01,  2.057370605019290E+01, -1.688029846272698E-03,  4.943473588680561E+02,  1.482016098208626E+08, -4.061639945983379E-01,
2458066.041666667, A.D. 2017-Nov-08 13:00:00.0000,      69.182625,  1.028166090759084E+08,  1.067334472880246E+08, -4.699879175044596E+03, -2.192642190117823E+01,  2.055817234161478E+01, -1.693864261659961E-03,  4.943424830592323E+02,  1.482001480901506E+08, -4.059087517744054E-01,
2458066.083333333, A.D. 2017-Nov-08 14:00:00.0000,      69.182626,  1.027376467344015E+08,  1.068074287300930E+08, -4.705987428449094E+03, -2.194154396267115E+01,  2.054262684175709E+01, -1.699592032804453E-03,  4.943376103108034E+02,  1.481986872769219E+08, -4.056542822392786E-01,
2458066.125000000, A.D. 2017-Nov-08 15:00:00.0000,      69.182627,  1.026586299711951E+08,  1.068813541871282E+08, -4.712116109065711E+03, -2.195665617591662E+01,  2.052706954436985E+01, -1.705212621959440E-03,  4.943327406134624E+02,  1.481972273783863E+08, -4.054005894726662E-01,
2458066.166666667, A.D. 2017-Nov-08 16:00:00.0000,      69.182627,  1.025795588217725E+08,  1.069552236166481E+08, -4.718264830082655E+03, -2.197175852446171E+01,  2.051150044334970E+01, -1.710725509963318E-03,  4.943278739578618E+02,  1.481957683917415E+08, -4.051476767945773E-01,
2458066.208333333, A.D. 2017-Nov-08 17:00:00.0000,      69.182628,  1.025004333216765E+08,  1.070290369761488E+08, -4.724433202892542E+03, -2.198685099170537E+01,  2.049591953274154E+01, -1.716130196165899E-03,  4.943230103346145E+02,  1.481943103141735E+08, -4.048955473662832E-01,
2458066.250000000, A.D. 2017-Nov-08 18:00:00.0000,      69.182629,  1.024212535065099E+08,  1.071027942231054E+08, -4.730620837084949E+03, -2.200193356090158E+01,  2.048032680674008E+01, -1.721426198376896E-03,  4.943181497342973E+02,  1.481928531428570E+08, -4.046442041913830E-01,
2458066.291666667, A.D. 2017-Nov-08 19:00:00.0000,      69.182629,  1.023420194119359E+08,  1.071764953149721E+08, -4.736827340543270E+03, -2.201700621516246E+01,  2.046472225969136E+01, -1.726613052762005E-03,  4.943132921474510E+02,  1.481913968749564E+08, -4.043936501169035E-01,
2458066.333333333, A.D. 2017-Nov-08 20:00:00.0000,      69.182630,  1.022627310736790E+08,  1.072501402091833E+08, -4.743052319541574E+03, -2.203206893746134E+01,  2.044910588609406E+01, -1.731690313786061E-03,  4.943084375645835E+02,  1.481899415076260E+08, -4.041438878344072E-01,
2458066.375000000, A.D. 2017-Nov-08 21:00:00.0000,      69.182631,  1.021833885275252E+08,  1.073237288631537E+08, -4.749295378759503E+03, -2.204712171063595E+01,  2.043347768060091E+01, -1.736657554116228E-03,  4.943035859761715E+02,  1.481884870380108E+08, -4.038949198812081E-01,
2458066.416666667, A.D. 2017-Nov-08 22:00:00.0000,      69.182631,  1.021039918093222E+08,  1.073972612342791E+08, -4.755556121423841E+03, -2.206216451739147E+01,  2.041783763801990E+01, -1.741514364525187E-03,  4.942987373726620E+02,  1.481870334632468E+08, -4.036467486414934E-01,
2458066.458333333, A.D. 2017-Nov-08 23:00:00.0000,      69.182632,  1.020245409549806E+08,  1.074707372799369E+08, -4.761834149211645E+03, -2.207719734030371E+01,  2.040218575331551E+01, -1.746260353811202E-03,  4.942938917444742E+02,  1.481855807804618E+08, -4.033993763476870E-01,
2458066.500000000, A.D. 2017-Nov-09 00:00:00.0000,      69.182633,  1.019450360004737E+08,  1.075441569574866E+08, -4.768129062525928E+03, -2.209222016182212E+01,  2.038652202160977E+01, -1.750895148685316E-03,  4.942890490820016E+02,  1.481841289867759E+08, -4.031528050816127E-01,
2458066.541666667, A.D. 2017-Nov-09 01:00:00.0000,      69.182633,  1.018654769818383E+08,  1.076175202242704E+08, -4.774440460413694E+03, -2.210723296427299E+01,  2.037084643818336E+01, -1.755418393669217E-03,  4.942842093756131E+02,  1.481826780793017E+08, -4.029070367758555E-01,
2458066.583333333, A.D. 2017-Nov-09 02:00:00.0000,      69.182634,  1.017858639351751E+08,  1.076908270376139E+08, -4.780767940692604E+03, -2.212223572986247E+01,  2.035515899847652E+01, -1.759829750988651E-03,  4.942793726156560E+02,  1.481812280551454E+08, -4.026620732151245E-01,
2458066.625000000, A.D. 2017-Nov-09 03:00:00.0000,      69.182635,  1.017061968966490E+08,  1.077640773548266E+08, -4.787111099988222E+03, -2.213722844067966E+01,  2.033945969809002E+01, -1.764128900469508E-03,  4.942745387924566E+02,  1.481797789114069E+08, -4.024179160375370E-01,
2458066.666666667, A.D. 2017-Nov-09 04:00:00.0000,      69.182635,  1.016264759024896E+08,  1.078372711332023E+08, -4.793469533763826E+03, -2.215221107869970E+01,  2.032374853278597E+01, -1.768315539387721E-03,  4.942697078963223E+02,  1.481783306451804E+08, -4.021745667361293E-01,
2458066.708333333, A.D. 2017-Nov-09 05:00:00.0000,      69.182636,  1.015467009889915E+08,  1.079104083300198E+08, -4.799842836506665E+03, -2.216718362578680E+01,  2.030802549848861E+01, -1.772389382401762E-03,  4.942648799175439E+02,  1.481768832535553E+08, -4.019320266601737E-01,
